[{"OBJECT_NAME":"STARLINK-31090","OBJECT_ID":"2023-203Y","EPOCH":"2026-03-09T23:20:32.506944","MEAN_MOTION":15.27569873,"ECCENTRICITY":0.00023137,"INCLINATION":43.0044,"RA_OF_ASC_NODE":57.7982,"ARG_OF_PERICENTER":279.134,"MEAN_ANOMALY":80.925,"EPHEMERIS_TYPE":0,"CLASSIFICATION_TYPE":"U","NORAD_CAT_ID":58640,"ELEMENT_SET_NO":999,"REV_AT_EPOCH":12370,"BSTAR":-8.387165e-6,"MEAN_MOTION_DOT":-4.93e-6,"MEAN_MOTION_DDOT":0},{"OBJECT_NAME":"SIMSAT 1","OBJECT_ID":"2000-026A","EPOCH":"2026-03-09T17:22:54.646176","MEAN_MOTION":15.27666538,"ECCENTRICITY":0.00084816,"INCLINATION":86.3501,"RA_OF_ASC_NODE":180.5413,"ARG_OF_PERICENTER":14.8337,"MEAN_ANOMALY":345.3157,"EPHEMERIS_TYPE":0,"CLASSIFICATION_TYPE":"U","NORAD_CAT_ID":26365,"ELEMENT_SET_NO":999,"REV_AT_EPOCH":42720,"BSTAR":0.00013499313,"MEAN_MOTION_DOT":3.69e-5,"MEAN_MOTION_DDOT":0}]
